ONEWEB-0326             
1 49195U 21083K   24027.33376429  .00000098  00000+0  21703-3 0  9996
2 49195  87.9244 148.9562 0001030 119.1871 240.9364 13.18687135115098
ONEWEB-0327             
1 49196U 21083L   24027.83880591  .00000069  00000+0  14320-3 0  9997
2 49196  87.9243 148.8678 0001326 119.7618 240.3646 13.18688767116469
ONEWEB-0328             
1 49197U 21083M   24027.82591455  .00000396  00000+0  10488-2 0  9998
2 49197  87.9007 133.6839 0001428 102.9517 257.1772 13.13472370117805
ONEWEB-0331             
1 49198U 21083N   24027.78269479  .00000070  00000+0  14515-3 0  9997
2 49198  87.9241 148.8601 0001352 105.3344 254.7937 13.18685890116445
ONEWEB-0333             
1 49199U 21083P   24027.82115982  .00000466  00000+0  12415-2 0  9997
2 49199  87.9018 133.6959 0001855 109.2830 250.8499 13.13469657117815
ONEWEB-0334             
1 49200U 21083Q   24027.60484374  .00000107  00000+0  23159-3 0  9990
2 49200  87.9158  87.9770 0002683 107.7715 252.3711 13.20772618121743
ONEWEB-0335             
1 49201U 21083R   24027.81640173  .00000328  00000+0  86283-3 0  9997
2 49201  87.9016 133.6852 0001575 101.3671 258.7635 13.13470867117829
ONEWEB-0336             
1 49202U 21083S   24027.32917455 -.00000126  00000+0 -38119-3 0  9997
2 49202  87.9014 133.7795 0001778 110.2692 249.8629 13.13471666116463
ONEWEB-0337             
1 49203U 21083T   24027.79562271 -.00000032  00000+0 -12273-3 0  9990
2 49203  87.9015 133.6858 0001531 101.7108 258.4193 13.13471974117823
ONEWEB-0338             
1 49204U 21083U   24027.53540797 -.00000060  00000+0 -17892-3 0  9995
2 49204  87.9166  87.9663 0002315  95.7544 264.3853 13.20770325121759
ONEWEB-0339             
1 49205U 21083V   24027.80687430 -.00002147  00000+0 -59132-2 0  9992
2 49205  87.9014 133.6813 0001658 106.8181 253.3130 13.13483685117807
ONEWEB-0340             
1 49206U 21083W   24027.84433896  .00000012  00000+0 -10449-5 0  9991
2 49206  87.9244 148.8408 0001428 105.4473 254.6817 13.18687118116420
ONEWEB-0341             
1 49207U 21083X   24027.77638034 -.00000202  00000+0 -54483-3 0  9991
2 49207  87.9262 148.8692 0001510  65.8170 294.3119 13.18683842116438
ONEWEB-0342             
1 49208U 21083Y   24027.54172355 -.00000041  00000+0 -13333-3 0  9996
2 49208  87.9157  87.9870 0002096  98.9007 261.2364 13.20770297121726
ONEWEB-0343             
1 49209U 21083Z   24027.39223537 -.00000568  00000+0 -14724-2 0  9997
2 49209  87.9236 148.9616 0001744  82.9665 277.1665 13.18688008115147
ONEWEB-0344             
1 49210U 21083AA  24027.77353642 -.00000217  00000+0 -62857-3 0  9994
2 49210  87.9016 133.7010 0001409 107.8609 252.2674 13.13469193117804
ONEWEB-0345             
1 49211U 21083AB  24027.33393939 -.00000011  00000+0 -66272-4 0  9998
2 49211  87.9014 133.7682 0001149  89.2768 270.8492 13.13470444116453
ONEWEB-0346             
1 49212U 21083AC  24027.78110068  .00000050  00000+0  92867-4 0  9998
2 49212  87.9243 148.8778 0001170 116.7158 243.4094 13.18687239116422
ONEWEB-0348             
1 49213U 21083AD  24027.53224877 -.00000120  00000+0 -32703-3 0  9998
2 49213  87.9166  87.9478 0001102  91.0460 269.0800 13.20771562123055
ONEWEB-0350             
1 49214U 21083AE  24027.80052648  .00000107  00000+0  25685-3 0  9998
2 49214  87.9012 133.6667 0001319  97.4169 262.7110 13.13470525117842
ONEWEB-0351             
1 49215U 21083AF  24027.60169531  .00000044  00000+0  75381-4 0  9996
2 49215  87.9163  87.9395 0002235  93.9317 266.2072 13.20770598121722
ONEWEB-0352             
1 49216U 21083AG  24027.32442077 -.00000231  00000+0 -66708-3 0  9997
2 49216  87.9018 133.7885 0001914 103.2058 256.9285 13.13473506116576
ONEWEB-0354             
1 49217U 21083AH  24027.55118527  .00000227  00000+0  52700-3 0  9993
2 49217  87.9165  87.9294 0001788  88.9024 271.2314 13.20772136121753
ONEWEB-0355             
1 49218U 21083AJ  24027.35457017  .00000337  00000+0  88660-3 0  9998
2 49218  87.9016 133.7817 0001670  97.9247 262.2071 13.13470046116455
ONEWEB-0357             
1 49219U 21083AK  24027.54802801 -.00000017  00000+0 -74188-4 0  9993
2 49219  87.9161  87.9529 0001767  98.8594 261.2739 13.20771110121752
ONEWEB-0332             
1 49279U 21090A   24027.59387414  .00000139  00000+0  34038-3 0  9992
2 49279  87.8963 103.2172 0002239 110.1720 249.9650 13.14504233113071
ONEWEB-0347             
1 49280U 21090B   24027.53856518  .00000139  00000+0  30951-3 0  9994
2 49280  87.9163  87.9502 0002318 105.5908 254.5481 13.20772067115980
ONEWEB-0349             
1 49281U 21090C   24027.57012395  .00000084  00000+0  17402-3 0  9991
2 49281  87.9167  87.9414 0001629  97.3867 262.7451 13.20772392114778
ONEWEB-0353             
1 49282U 21090D   24027.58594379 -.00002556  00000+0 -69298-2 0  9997
2 49282  87.8965 103.2023 0001965 105.2093 254.9254 13.14514729113072
ONEWEB-0356             
1 49283U 21090E   24027.56854809  .00000111  00000+0  24015-3 0  9995
2 49283  87.9165  87.9378 0001467 128.2729 231.8536 13.20770718114779
ONEWEB-0358             
1 49284U 21090F   24027.59852867  .00000061  00000+0  11883-3 0  9994
2 49284  87.9166  87.9168 0001504 103.1153 257.0148 13.20771934115505
ONEWEB-0359             
1 49285U 21090G   24027.59538144  .00000074  00000+0  15052-3 0  9990
2 49285  87.9164  87.9382 0001625  84.4523 275.6795 13.20770525115484
ONEWEB-0360             
1 49286U 21090H   24027.58590435  .00000094  00000+0  19989-3 0  9996
2 49286  87.9164  87.9444 0001820  95.8765 264.2575 13.20772462114790
ONEWEB-0361             
1 49287U 21090J   24027.56697498  .00000086  00000+0  17924-3 0  9990
2 49287  87.9166  87.9423 0001825 102.5861 257.5477 13.20770508115244
ONEWEB-0362             
1 49288U 21090K   24027.28410732  .00000118  00000+0  26132-3 0  9991
2 49288  87.9200 118.5504 0001992  93.7179 266.4182 13.19724656111916
ONEWEB-0363             
1 49289U 21090L   24027.58275810  .00000091  00000+0  19093-3 0  9999
2 49289  87.9166  87.9346 0001563 111.4339 248.6961 13.20770642115257
ONEWEB-0364             
1 49290U 21090M   24027.54487599 -.00000147  00000+0 -39303-3 0  9996
2 49290  87.9167  87.9645 0002016 102.6031 257.5328 13.20769324116383
ONEWEB-0365             
1 49291U 21090N   24027.29357940  .00000133  00000+0  30089-3 0  9990
2 49291  87.9193 118.5383 0001910 101.1559 258.9788 13.19724620111427
ONEWEB-0366             
1 49292U 21090P   24027.58277776  .00000222  00000+0  56529-3 0  9997
2 49292  87.8964 103.2108 0001888 107.1543 252.9794 13.14501234113053
ONEWEB-0367             
1 49293U 21090Q   24027.58117796  .00000109  00000+0  23572-3 0  9999
2 49293  87.9165  87.9288 0002113 105.0554 255.0813 13.20770512114776
ONEWEB-0368             
1 49294U 21090R   24027.55434603  .00000067  00000+0  13196-3 0  9990
2 49294  87.9166  87.9631 0002274 121.8335 238.3020 13.20771023115921
ONEWEB-0369             
1 49295U 21090S   24027.28884389  .00000145  00000+0  33082-3 0  9994
2 49295  87.9199 118.5324 0001938 104.7453 255.3895 13.19724750111417
ONEWEB-0370             
1 49296U 21090T   24027.59064950  .00000078  00000+0  16046-3 0  9999
2 49296  87.9166  87.9310 0001888 104.6506 255.4837 13.20770415114813
ONEWEB-0371             
1 49297U 21090U   24027.75163901 -.00000161  00000+0 -43461-3 0  9990
2 49297  87.9201 118.4306 0001966 103.1917 256.9435 13.19725834112806
ONEWEB-0372             
1 49298U 21090V   24027.65522267  .00000090  00000+0  18980-3 0  9991
2 49298  87.9167  87.9260 0002097 101.6444 258.4925 13.20770694116093
ONEWEB-0373             
1 49299U 21090W   24027.53067361  .00000003  00000+0 -25366-4 0  9990
2 49299  87.9165  87.9689 0001916 111.2166 248.9172 13.20770987117267
ONEWEB-0374             
1 49300U 21090X   24027.72232825  .00000163  00000+0  40590-3 0  9994
2 49300  87.8960 103.1705 0001838 105.4709 254.6624 13.14502050114364
ONEWEB-0375             
1 49301U 21090Y   24027.59379206  .00000071  00000+0  14193-3 0  9993
2 49301  87.9165  87.9316 0001252 118.2659 241.8601 13.20772763115479
ONEWEB-0376             
1 49302U 21090Z   24027.29515545  .00000135  00000+0  30445-3 0  9998
2 49302  87.9192 118.5386 0002102 102.4259 257.7109 13.19726571111451
ONEWEB-0377             
1 49303U 21090AA  24027.73125468  .00000107  00000+0  23185-3 0  9991
2 49303  87.9165  87.8954 0001707  93.6057 266.5272 13.20771321116761
ONEWEB-0378             
1 49304U 21090AB  24027.55513828  .00000052  00000+0  94758-4 0  9997
2 49304  87.9166  87.9448 0001901 108.5628 251.5712 13.20771209114720
ONEWEB-0379             
1 49305U 21090AC  24027.56533531  .00000052  00000+0  10620-3 0  9997
2 49305  87.8963 103.2037 0001753 105.5959 254.5364 13.14502588113056
ONEWEB-0380             
1 49306U 21090AD  24027.29199668  .00000140  00000+0  31778-3 0  9992
2 49306  87.9199 118.5352 0001680 101.3665 258.7657 13.19725764111423
ONEWEB-0381             
1 49307U 21090AE  24027.57644702  .00000098  00000+0  20790-3 0  9992
2 49307  87.9167  87.9328 0001800  99.6598 260.4739 13.20770941114770
ONEWEB-0382             
1 49308U 21090AF  24027.56381505  .00000084  00000+0  17345-3 0  9998
2 49308  87.9164  87.9331 0001693 117.8401 242.2904 13.20770735114760
ONEWEB-0383             
1 49309U 21090AG  24027.71121118 -.00000014  00000+0 -73007-4 0  9991
2 49309  87.8957 103.1663 0001839 110.0857 250.0471 13.14505401114395
ONEWEB-0384             
1 49310U 21090AH  24027.56067032  .00000053  00000+0  98185-4 0  9995
2 49310  87.9166  87.9428 0001620 119.5051 240.6244 13.20771702114777
ONEWEB-0385             
1 49311U 21090AJ  24027.55592355 -.00000095  00000+0 -26628-3 0  9996
2 49311  87.9165  87.9451 0001545 108.6463 251.4838 13.20769658114748
ONEWEB-0386             
1 49312U 21090AK  24027.72479230  .00000108  00000+0  23428-3 0  9990
2 49312  87.9158  87.9161 0001777 110.9045 249.2278 13.20771937116094
